{
    "links": {
        "self": "http://www.neowsapp.com/rest/v1/neo/54016542?api_key=iIulBulltgU6a56xZRHN4H3l9WmuAYTsLGpBGhQ2"
    },
    "id": "54016542",
    "neo_reference_id": "54016542",
    "name": "(2020 HB)",
    "designation": "2020 HB",
    "nasa_jpl_url": "http://ssd.jpl.nasa.gov/sbdb.cgi?sstr=54016542",
    "absolute_magnitude_h": 25.152,
    "estimated_diameter": {
        "kilometers": {
            "estimated_diameter_min": 0.0247830628,
            "estimated_diameter_max": 0.055416613
        },
        "meters": {
            "estimated_diameter_min": 24.7830627558,
            "estimated_diameter_max": 55.4166130127
        },
        "miles": {
            "estimated_diameter_min": 0.0153994765,
            "estimated_diameter_max": 0.0344342762
        },
        "feet": {
            "estimated_diameter_min": 81.3092636118,
            "estimated_diameter_max": 181.8130406365
        }
    },
    "is_potentially_hazardous_asteroid": false,
    "close_approach_data": [
        {
            "close_approach_date": "2020-04-21",
            "close_approach_date_full": "2020-Apr-21 12:14",
            "epoch_date_close_approach": 1587471240000,
            "relative_velocity": {
                "kilometers_per_second": "13.5223794775",
                "kilometers_per_hour": "48680.5661188621",
                "miles_per_hour": "30248.2106531341"
            },
            "miss_distance": {
                "astronomical": "0.0148088807",
                "lunar": "5.7606545923",
                "kilometers": "2215377.009804109",
                "miles": "1376571.4414263442"
            },
            "orbiting_body": "Earth"
        },
        {
            "close_approach_date": "2151-04-06",
            "close_approach_date_full": "2151-Apr-06 05:42",
            "epoch_date_close_approach": 5720046120000,
            "relative_velocity": {
                "kilometers_per_second": "21.2657536432",
                "kilometers_per_hour": "76556.7131156586",
                "miles_per_hour": "47569.3643245602"
            },
            "miss_distance": {
                "astronomical": "0.2531814377",
                "lunar": "98.4875792653",
                "kilometers": "37875403.803457699",
                "miles": "23534684.6056422862"
            },
            "orbiting_body": "Earth"
        }
    ],
    "orbital_data": {
        "orbit_id": "1",
        "orbit_determination_date": "2020-04-17 18:12:06",
        "first_observation_date": "2020-04-16",
        "last_observation_date": "2020-04-17",
        "data_arc_in_days": 1,
        "observations_used": 25,
        "orbit_uncertainty": "8",
        "minimum_orbit_intersection": ".0120176",
        "jupiter_tisserand_invariant": "3.565",
        "epoch_osculation": "2458956.5",
        "eccentricity": ".5868851884158213",
        "semi_major_axis": "2.039615756759102",
        "inclination": ".9465407122641255",
        "ascending_node_longitude": "256.8723383587233",
        "orbital_period": "1063.94937663445",
        "perihelion_distance": ".8425954790576583",
        "perihelion_argument": "9.435388857786728",
        "aphelion_distance": "3.236636034460545",
        "perihelion_time": "2458999.792631381577",
        "mean_anomaly": "345.3514202464517",
        "mean_motion": ".3383619633659397",
        "equinox": "J2000",
        "orbit_class": {
            "orbit_class_type": "APO",
            "orbit_class_description": "Near-Earth asteroid orbits which cross the Earth’s orbit similar to that of 1862 Apollo",
            "orbit_class_range": "a (semi-major axis) > 1.0 AU; q (perihelion) < 1.017 AU"
        }
    },
    "is_sentry_object": false
}